CCSDS_OMM_VERS,COMMENT,CREATION_DATE,ORIGINATOR,OBJECT_NAME,OBJECT_ID,CENTER_NAME,REF_FRAME,TIME_SYSTEM,MEAN_ELEMENT_THEORY,EPOCH,MEAN_MOTION,ECCENTRICITY,INCLINATION,RA_OF_ASC_NODE,ARG_OF_PERICENTER,MEAN_ANOMALY,EPHEMERIS_TYPE,CLASSIFICATION_TYPE,NORAD_CAT_ID,ELEMENT_SET_NO,REV_AT_EPOCH,BSTAR,MEAN_MOTION_DOT,MEAN_MOTION_DDOT,SEMIMAJOR_AXIS,PERIOD,APOAPSIS,PERIAPSIS,OBJECT_TYPE,RCS_SIZE,COUNTRY_CODE,LAUNCH_DATE,SITE,DECAY_DATE,FILE,GP_ID,TLE_LINE0,TLE_LINE1,TLE_LINE2
"2.0","GENERATED VIA SPACE-TRACK.ORG API","2020-05-03T14:36:09","18 SPCS","ORBCOMM FM 30","1999-065A","EARTH","TEME","UTC","SGP4","2020-05-03T11:04:57.660672","14.32872708","0.00050100","45.0329","258.9648","58.1553","301.9781","0","U","25980","999","6643","0.00005446600000","0.00000009","0.0000000000000","7160.281","100.497","785.733","778.559","PAYLOAD","MEDIUM","ORB","1999-12-04","AFETR","","2743325","153289138","0 ORBCOMM FM 30","1 25980U 99065A   20124.46177848  .00000009  00000-0  54466-4 0  9995","2 25980  45.0329 258.9648 0005010  58.1553 301.9781 14.32872708 66434"
"2.0","GENERATED VIA SPACE-TRACK.ORG API","2020-05-03T16:51:36","18 SPCS","ORBCOMM FM 30","1999-065A","EARTH","TEME","UTC","SGP4","2020-05-03T04:23:21.500736","14.32872607","0.00050310","45.0329","260.2754","56.4831","303.6496","0","U","25980","999","6586","0.00005535900000","0.00000012","0.0000000000000","7160.281","100.497","785.749","778.544","PAYLOAD","MEDIUM","ORB","1999-12-04","AFETR","","2743435","153299232","0 ORBCOMM FM 30","1 25980U 99065A   20124.18288774 +.00000012 +00000-0 +55359-4 0  9991","2 25980 045.0329 260.2754 0005031 056.4831 303.6496 14.32872607065867"
"2.0","GENERATED VIA SPACE-TRACK.ORG API","2020-05-03T02:42:16","18 SPCS","ORBCOMM FM 30","1999-065A","EARTH","TEME","UTC","SGP4","2020-05-02T20:01:21.300384","14.32872495","0.00050610","45.0329","261.9137","54.5539","305.5779","0","U","25980","999","6581","0.00005815500000","0.00000019","0.0000000000000","7160.282","100.497","785.771","778.523","PAYLOAD","MEDIUM","ORB","1999-12-04","AFETR","","2743112","153271497","0 ORBCOMM FM 30","1 25980U 99065A   20123.83427431 +.00000019 +00000-0 +58155-4 0  9991","2 25980 045.0329 261.9137 0005061 054.5539 305.5779 14.32872495065812"
"2.0","GENERATED VIA SPACE-TRACK.ORG API","2020-05-02T17:37:01","18 SPCS","ORBCOMM FM 30","1999-065A","EARTH","TEME","UTC","SGP4","2020-05-02T13:19:45.133536","14.32872400","0.00050750","45.0329","263.2242","52.9626","307.1684","0","U","25980","999","6577","0.00005911000000","0.00000022","0.0000000000000","7160.282","100.497","785.781","778.513","PAYLOAD","MEDIUM","ORB","1999-12-04","AFETR","","2742959","153248023","0 ORBCOMM FM 30","1 25980U 99065A   20123.55538349 +.00000022 +00000-0 +59110-4 0  9997","2 25980 045.0329 263.2242 0005075 052.9626 307.1684 14.32872400065772"
"2.0","GENERATED VIA SPACE-TRACK.ORG API","2020-05-02T01:20:52","18 SPCS","ORBCOMM FM 30","1999-065A","EARTH","TEME","UTC","SGP4","2020-05-01T20:35:44.715552","14.32872181","0.00051350","45.0329","266.5007","48.9484","311.1806","0","U","25980","999","6567","0.00006327300000","0.00000033","0.0000000000000","7160.283","100.497","785.825","778.471","PAYLOAD","MEDIUM","ORB","1999-12-04","AFETR","","2742554","153218494","0 ORBCOMM FM 30","1 25980U 99065A   20122.85815643 +.00000033 +00000-0 +63273-4 0  9991","2 25980 045.0329 266.5007 0005135 048.9484 311.1806 14.32872181065677"
"2.0","GENERATED VIA SPACE-TRACK.ORG API","2020-05-02T06:36:09","18 SPCS","ORBCOMM FM 30","1999-065A","EARTH","TEME","UTC","SGP4","2020-05-01T20:35:44.715552","14.32872181","0.00051350","45.0329","266.5007","48.9484","311.1806","0","U","25980","999","6620","0.00006327300000","0.00000033","0.0000000000000","7160.283","100.497","785.825","778.471","PAYLOAD","MEDIUM","ORB","1999-12-04","AFETR","","2742638","153233124","0 ORBCOMM FM 30","1 25980U 99065A   20122.85815643  .00000033  00000-0  63273-4 0  9991","2 25980  45.0329 266.5007 0005135  48.9484 311.1806 14.32872181 66207"
"2.0","GENERATED VIA SPACE-TRACK.ORG API","2020-05-02T01:20:52","18 SPCS","CZ-4 DEB","1999-057SK","EARTH","TEME","UTC","SGP4","2020-05-01T20:19:58.179360","14.46798582","0.01149690","98.7054","136.0992","327.6036","155.4546","0","U","35331","999","33266","0.00015665000000","0.00000563","0.0000000000000","7114.260","99.530","817.917","654.334","DEBRIS","SMALL","PRC","1999-10-14","TSC","","2742554","153223733","0 CZ-4 DEB","1 35331U 99057SK  20122.84720115 +.00000563 +00000-0 +15665-3 0  9990","2 35331 098.7054 136.0992 0114969 327.6036 155.4546 14.46798582332661"
"2.0","GENERATED VIA SPACE-TRACK.ORG API","2020-05-02T06:26:10","18 SPCS","CZ-4 DEB","1999-057SK","EARTH","TEME","UTC","SGP4","2020-05-01T20:19:58.179360","14.46798582","0.01149690","98.7054","136.0992","327.6036","155.4546","0","U","35331","999","91044","0.00015665000000","0.00000563","0.0000000000000","7114.260","99.530","817.917","654.334","DEBRIS","SMALL","PRC","1999-10-14","TSC","","2742601","153232175","0 CZ-4 DEB","1 35331U 99057SK  20122.84720115  .00000563  00000-0  15665-3 0  9990","2 35331  98.7054 136.0992 0114969 327.6036 155.4546 14.46798582910449"
"2.0","GENERATED VIA SPACE-TRACK.ORG API","2020-05-01T20:27:47","18 SPCS","ORBCOMM FM 30","1999-065A","EARTH","TEME","UTC","SGP4","2020-04-30T21:10:08.101344","14.32871911","0.00052090","45.0329","271.0879","43.4323","316.6933","0","U","25980","999","6553","0.00006814200000","0.00000047","0.0000000000000","7160.284","100.497","785.879","778.419","PAYLOAD","MEDIUM","ORB","1999-12-04","AFETR","","2742433","153195816","0 ORBCOMM FM 30","1 25980U 99065A   20121.88203821 +.00000047 +00000-0 +68142-4 0  9997","2 25980 045.0329 271.0879 0005209 043.4323 316.6933 14.32871911065535"
"2.0","GENERATED VIA SPACE-TRACK.ORG API","2020-05-01T00:26:09","18 SPCS","ORBCOMM FM 30","1999-065A","EARTH","TEME","UTC","SGP4","2020-04-30T19:29:44.056608","14.32871889","0.00052130","45.0329","271.4155","43.0536","317.0718","0","U","25980","999","6605","0.00006836000000","0.00000047","0.0000000000000","7160.284","100.497","785.881","778.416","PAYLOAD","MEDIUM","ORB","1999-12-04","AFETR","","2742004","153158806","0 ORBCOMM FM 30","1 25980U 99065A   20121.81231547  .00000047  00000-0  68360-4 0  9998","2 25980  45.0329 271.4155 0005213  43.0536 317.0718 14.32871889 66051"
"2.0","GENERATED VIA SPACE-TRACK.ORG API","2020-05-01T04:51:25","18 SPCS","CZ-4 DEB","1999-057SK","EARTH","TEME","UTC","SGP4","2020-04-30T07:18:18.701568","14.46796492","0.01150620","98.7055","134.5130","332.2838","39.6930","0","U","35331","999","33244","0.00015464000000","0.00000555","0.0000000000000","7114.267","99.530","817.991","654.274","DEBRIS","SMALL","PRC","1999-10-14","TSC","","2742088","153172921","0 CZ-4 DEB","1 35331U 99057SK  20121.30438312 +.00000555 +00000-0 +15464-3 0  9993","2 35331 098.7055 134.5130 0115062 332.2838 039.6930 14.46796492332440"
"2.0","GENERATED VIA SPACE-TRACK.ORG API","2020-04-30T17:34:29","18 SPCS","ORBCOMM FM 30","1999-065A","EARTH","TEME","UTC","SGP4","2020-04-29T21:44:31.455168","14.32871665","0.00052820","45.0329","275.6750","38.0033","322.1186","0","U","25980","999","6539","0.00007132500000","0.00000056","0.0000000000000","7160.285","100.497","785.932","778.367","PAYLOAD","MEDIUM","ORB","1999-12-04","AFETR","","2741876","153142793","0 ORBCOMM FM 30","1 25980U 99065A   20120.90591962 +.00000056 +00000-0 +71325-4 0  9992","2 25980 045.0329 275.6750 0005282 038.0033 322.1186 14.32871665065394"
"2.0","GENERATED VIA SPACE-TRACK.ORG API","2020-04-30T04:00:12","18 SPCS","ORBCOMM FM 30","1999-065A","EARTH","TEME","UTC","SGP4","2020-04-29T18:23:43.362240","14.32871616","0.00052930","45.0329","276.3303","37.2488","322.8725","0","U","25980","999","6537","0.00007099200000","0.00000055","0.0000000000000","7160.285","100.497","785.940","778.360","PAYLOAD","MEDIUM","ORB","1999-12-04","AFETR","","2741555","153115289","0 ORBCOMM FM 30","1 25980U 99065A   20120.76647410 +.00000055 +00000-0 +70992-4 0  9994","2 25980 045.0329 276.3303 0005293 037.2488 322.8725 14.32871616065373"
"2.0","GENERATED VIA SPACE-TRACK.ORG API","2020-04-29T14:36:09","18 SPCS","ORBCOMM FM 30","1999-065A","EARTH","TEME","UTC","SGP4","2020-04-29T11:42:07.166880","14.32871572","0.00053170","45.0329","277.6408","35.6747","324.4454","0","U","25980","999","6586","0.00007279900000","0.00000060","0.0000000000000","7160.285","100.497","785.957","778.343","PAYLOAD","MEDIUM","ORB","1999-12-04","AFETR","","2741217","153081680","0 ORBCOMM FM 30","1 25980U 99065A   20120.48758295  .00000060  00000-0  72799-4 0  9990","2 25980  45.0329 277.6408 0005317  35.6747 324.4454 14.32871572 65862"
"2.0","GENERATED VIA SPACE-TRACK.ORG API","2020-04-29T14:46:09","18 SPCS","CZ-4 DEB","1999-057SK","EARTH","TEME","UTC","SGP4","2020-04-29T06:36:33.303744","14.46795142","0.01151520","98.7056","133.4552","335.4032","80.1718","0","U","35331","999","91006","0.00015250000000","0.00000547","0.0000000000000","7114.272","99.530","818.059","654.214","DEBRIS","SMALL","PRC","1999-10-14","TSC","","2741295","153083612","0 CZ-4 DEB","1 35331U 99057SK  20120.27538546  .00000547  00000-0  15250-3 0  9992","2 35331  98.7056 133.4552 0115152 335.4032  80.1718 14.46795142910064"
"2.0","GENERATED VIA SPACE-TRACK.ORG API","2020-04-29T17:42:05","18 SPCS","CZ-4 DEB","1999-057SK","EARTH","TEME","UTC","SGP4","2020-04-28T23:51:15.373152","14.46794765","0.01151880","98.7056","133.1659","336.2565","54.2044","0","U","35331","999","33225","0.00015201000000","0.00000545","0.0000000000000","7114.273","99.530","818.086","654.190","DEBRIS","SMALL","PRC","1999-10-14","TSC","","2741376","153097771","0 CZ-4 DEB","1 35331U 99057SK  20119.99392793 +.00000545 +00000-0 +15201-3 0  9995","2 35331 098.7056 133.1659 0115188 336.2565 054.2044 14.46794765332251"
